[{"OBJECT_NAME":"IRIDIUM 136","OBJECT_ID":"2017-061H","EPOCH":"2026-03-09T23:21:02.652768","MEAN_MOTION":14.34217428,"ECCENTRICITY":0.00020185,"INCLINATION":86.3917,"RA_OF_ASC_NODE":66.7307,"ARG_OF_PERICENTER":86.502,"MEAN_ANOMALY":273.6407,"EPHEMERIS_TYPE":0,"CLASSIFICATION_TYPE":"U","NORAD_CAT_ID":42962,"ELEMENT_SET_NO":999,"REV_AT_EPOCH":44061,"BSTAR":-6.150317e-6,"MEAN_MOTION_DOT":3.0e-8,"MEAN_MOTION_DDOT":0},{"OBJECT_NAME":"NOAA 16 DEB","OBJECT_ID":"2000-055FW","EPOCH":"2026-03-09T04:58:11.044992","MEAN_MOTION":14.36212465,"ECCENTRICITY":0.00246821,"INCLINATION":98.9728,"RA_OF_ASC_NODE":200.2532,"ARG_OF_PERICENTER":170.4935,"MEAN_ANOMALY":189.6721,"EPHEMERIS_TYPE":0,"CLASSIFICATION_TYPE":"U","NORAD_CAT_ID":41270,"ELEMENT_SET_NO":999,"REV_AT_EPOCH":52651,"BSTAR":0.0038118464,"MEAN_MOTION_DOT":0.00011131,"MEAN_MOTION_DDOT":0}]
